[{"OBJECT_NAME":"CUTE-1 (CO-55)","OBJECT_ID":"2003-031E","EPOCH":"2026-04-04T23:28:29.707104","MEAN_MOTION":14.2428935,"ECCENTRICITY":0.00103254,"INCLINATION":98.6769,"RA_OF_ASC_NODE":104.4513,"ARG_OF_PERICENTER":43.9369,"MEAN_ANOMALY":316.263,"EPHEMERIS_TYPE":0,"CLASSIFICATION_TYPE":"U","NORAD_CAT_ID":27844,"ELEMENT_SET_NO":999,"REV_AT_EPOCH":18125,"BSTAR":0.00021712788,"MEAN_MOTION_DOT":4.58e-6,"MEAN_MOTION_DDOT":0},{"OBJECT_NAME":"CUBESAT XI-IV (CO-57)","OBJECT_ID":"2003-031J","EPOCH":"2026-04-05T00:00:26.441856","MEAN_MOTION":14.23580899,"ECCENTRICITY":0.00104798,"INCLINATION":98.6802,"RA_OF_ASC_NODE":104.2449,"ARG_OF_PERICENTER":60.3929,"MEAN_ANOMALY":299.8292,"EPHEMERIS_TYPE":0,"CLASSIFICATION_TYPE":"U","NORAD_CAT_ID":27848,"ELEMENT_SET_NO":999,"REV_AT_EPOCH":18096,"BSTAR":0.00018383126,"MEAN_MOTION_DOT":3.75e-6,"MEAN_MOTION_DDOT":0},{"OBJECT_NAME":"CUBESAT XI-V","OBJECT_ID":"2005-043F","EPOCH":"2026-04-05T05:16:09.397344","MEAN_MOTION":14.72437411,"ECCENTRICITY":0.00153009,"INCLINATION":98.2886,"RA_OF_ASC_NODE":249.3545,"ARG_OF_PERICENTER":79.0212,"MEAN_ANOMALY":281.2715,"EPHEMERIS_TYPE":0,"CLASSIFICATION_TYPE":"U","NORAD_CAT_ID":28895,"ELEMENT_SET_NO":999,"REV_AT_EPOCH":9101,"BSTAR":0.00042563369,"MEAN_MOTION_DOT":2.651e-5,"MEAN_MOTION_DDOT":0},{"OBJECT_NAME":"CUTE-1.7+APD II (CO-65)","OBJECT_ID":"2008-021C","EPOCH":"2026-04-05T05:53:33.487872","MEAN_MOTION":15.08760642,"ECCENTRICITY":0.00071778,"INCLINATION":97.8239,"RA_OF_ASC_NODE":75.2076,"ARG_OF_PERICENTER":278.9265,"MEAN_ANOMALY":81.115,"EPHEMERIS_TYPE":0,"CLASSIFICATION_TYPE":"U","NORAD_CAT_ID":32785,"ELEMENT_SET_NO":999,"REV_AT_EPOCH":97419,"BSTAR":0.0004598871,"MEAN_MOTION_DOT":7.163e-5,"MEAN_MOTION_DDOT":0},{"OBJECT_NAME":"CANX-2","OBJECT_ID":"2008-021H","EPOCH":"2026-04-04T21:41:39.443136","MEAN_MOTION":15.05087267,"ECCENTRICITY":0.00089574,"INCLINATION":97.8582,"RA_OF_ASC_NODE":73.3108,"ARG_OF_PERICENTER":295.7551,"MEAN_ANOMALY":64.275,"EPHEMERIS_TYPE":0,"CLASSIFICATION_TYPE":"U","NORAD_CAT_ID":32790,"ELEMENT_SET_NO":999,"REV_AT_EPOCH":97378,"BSTAR":0.0004088783,"MEAN_MOTION_DOT":5.757e-5,"MEAN_MOTION_DDOT":0},{"OBJECT_NAME":"SEEDS II (CO-66)","OBJECT_ID":"2008-021J","EPOCH":"2026-04-05T05:14:19.768704","MEAN_MOTION":15.30294749,"ECCENTRICITY":0.00030153,"INCLINATION":97.7527,"RA_OF_ASC_NODE":89.7798,"ARG_OF_PERICENTER":158.9144,"MEAN_ANOMALY":201.222,"EPHEMERIS_TYPE":0,"CLASSIFICATION_TYPE":"U","NORAD_CAT_ID":32791,"ELEMENT_SET_NO":999,"REV_AT_EPOCH":97612,"BSTAR":0.00081081396,"MEAN_MOTION_DOT":0.00023732,"MEAN_MOTION_DDOT":0},{"OBJECT_NAME":"SWISSCUBE","OBJECT_ID":"2009-051B","EPOCH":"2026-04-05T05:34:14.303136","MEAN_MOTION":14.62337809,"ECCENTRICITY":0.00080896,"INCLINATION":98.4078,"RA_OF_ASC_NODE":1.8437,"ARG_OF_PERICENTER":80.6523,"MEAN_ANOMALY":279.5592,"EPHEMERIS_TYPE":0,"CLASSIFICATION_TYPE":"U","NORAD_CAT_ID":35932,"ELEMENT_SET_NO":999,"REV_AT_EPOCH":87849,"BSTAR":0.00036900898,"MEAN_MOTION_DOT":1.815e-5,"MEAN_MOTION_DDOT":0},{"OBJECT_NAME":"BEESAT-1","OBJECT_ID":"2009-051C","EPOCH":"2026-04-04T23:58:12.906336","MEAN_MOTION":14.61597876,"ECCENTRICITY":0.00065479,"INCLINATION":98.4009,"RA_OF_ASC_NODE":1.393,"ARG_OF_PERICENTER":92.8438,"MEAN_ANOMALY":267.3512,"EPHEMERIS_TYPE":0,"CLASSIFICATION_TYPE":"U","NORAD_CAT_ID":35933,"ELEMENT_SET_NO":999,"REV_AT_EPOCH":87849,"BSTAR":0.00029929827,"MEAN_MOTION_DOT":1.439e-5,"MEAN_MOTION_DDOT":0},{"OBJECT_NAME":"ITUPSAT1","OBJECT_ID":"2009-051E","EPOCH":"2026-04-05T04:47:50.678304","MEAN_MOTION":14.60328249,"ECCENTRICITY":0.00086737,"INCLINATION":98.4093,"RA_OF_ASC_NODE":0.8653,"ARG_OF_PERICENTER":102.3407,"MEAN_ANOMALY":257.8764,"EPHEMERIS_TYPE":0,"CLASSIFICATION_TYPE":"U","NORAD_CAT_ID":35935,"ELEMENT_SET_NO":999,"REV_AT_EPOCH":87808,"BSTAR":0.00029279853,"MEAN_MOTION_DOT":1.367e-5,"MEAN_MOTION_DDOT":0},{"OBJECT_NAME":"TISAT 1","OBJECT_ID":"2010-035E","EPOCH":"2026-04-05T06:35:28.230720","MEAN_MOTION":15.28979942,"ECCENTRICITY":0.00043004,"INCLINATION":98.0673,"RA_OF_ASC_NODE":35.546,"ARG_OF_PERICENTER":117.9861,"MEAN_ANOMALY":242.1812,"EPHEMERIS_TYPE":0,"CLASSIFICATION_TYPE":"U","NORAD_CAT_ID":36799,"ELEMENT_SET_NO":999,"REV_AT_EPOCH":85655,"BSTAR":0.00095772767,"MEAN_MOTION_DOT":0.00026947,"MEAN_MOTION_DDOT":0},{"OBJECT_NAME":"AEROCUBE 4.5A","OBJECT_ID":"2012-048K","EPOCH":"2026-04-04T22:16:58.188864","MEAN_MOTION":15.67837208,"ECCENTRICITY":0.00346287,"INCLINATION":64.6344,"RA_OF_ASC_NODE":288.3518,"ARG_OF_PERICENTER":209.4358,"MEAN_ANOMALY":150.4842,"EPHEMERIS_TYPE":0,"CLASSIFICATION_TYPE":"U","NORAD_CAT_ID":38767,"ELEMENT_SET_NO":999,"REV_AT_EPOCH":36109,"BSTAR":0.0011023244,"MEAN_MOTION_DOT":0.00127838,"MEAN_MOTION_DDOT":0},{"OBJECT_NAME":"STRAND-1","OBJECT_ID":"2013-009E","EPOCH":"2026-04-05T05:32:00.956832","MEAN_MOTION":14.37119172,"ECCENTRICITY":0.00098569,"INCLINATION":98.3906,"RA_OF_ASC_NODE":277.2648,"ARG_OF_PERICENTER":89.8163,"MEAN_ANOMALY":270.4154,"EPHEMERIS_TYPE":0,"CLASSIFICATION_TYPE":"U","NORAD_CAT_ID":39090,"ELEMENT_SET_NO":999,"REV_AT_EPOCH":68658,"BSTAR":0.00018366188,"MEAN_MOTION_DOT":5.03e-6,"MEAN_MOTION_DDOT":0},{"OBJECT_NAME":"BRITE-AUSTRIA","OBJECT_ID":"2013-009F","EPOCH":"2026-04-05T05:05:42.801216","MEAN_MOTION":14.36512301,"ECCENTRICITY":0.00113938,"INCLINATION":98.3976,"RA_OF_ASC_NODE":276.4587,"ARG_OF_PERICENTER":97.667,"MEAN_ANOMALY":262.5811,"EPHEMERIS_TYPE":0,"CLASSIFICATION_TYPE":"U","NORAD_CAT_ID":39091,"ELEMENT_SET_NO":999,"REV_AT_EPOCH":68657,"BSTAR":0.0001216073,"MEAN_MOTION_DOT":3.15e-6,"MEAN_MOTION_DDOT":0},{"OBJECT_NAME":"NEE-01 PEGASO","OBJECT_ID":"2013-018B","EPOCH":"2026-04-04T20:02:03.455808","MEAN_MOTION":14.93299481,"ECCENTRICITY":0.00134804,"INCLINATION":98.111,"RA_OF_ASC_NODE":236.6266,"ARG_OF_PERICENTER":49.7782,"MEAN_ANOMALY":310.4614,"EPHEMERIS_TYPE":0,"CLASSIFICATION_TYPE":"U","NORAD_CAT_ID":39151,"ELEMENT_SET_NO":999,"REV_AT_EPOCH":69975,"BSTAR":0.00037785479,"MEAN_MOTION_DOT":3.903e-5,"MEAN_MOTION_DDOT":0},{"OBJECT_NAME":"POPACS 2","OBJECT_ID":"2013-055E","EPOCH":"2026-04-04T19:01:51.185856","MEAN_MOTION":14.89244923,"ECCENTRICITY":0.04255459,"INCLINATION":80.9929,"RA_OF_ASC_NODE":228.0779,"ARG_OF_PERICENTER":69.4478,"MEAN_ANOMALY":295.185,"EPHEMERIS_TYPE":0,"CLASSIFICATION_TYPE":"U","NORAD_CAT_ID":39269,"ELEMENT_SET_NO":999,"REV_AT_EPOCH":65228,"BSTAR":0.0004318864,"MEAN_MOTION_DOT":0.00025301,"MEAN_MOTION_DDOT":0},{"OBJECT_NAME":"POPACS 3","OBJECT_ID":"2013-055F","EPOCH":"2026-04-04T08:12:03.366432","MEAN_MOTION":14.54572717,"ECCENTRICITY":0.05564846,"INCLINATION":81.0009,"RA_OF_ASC_NODE":309.1754,"ARG_OF_PERICENTER":294.7147,"MEAN_ANOMALY":59.7099,"EPHEMERIS_TYPE":0,"CLASSIFICATION_TYPE":"U","NORAD_CAT_ID":39270,"ELEMENT_SET_NO":999,"REV_AT_EPOCH":62781,"BSTAR":0.00025514995,"MEAN_MOTION_DOT":0.00010489,"MEAN_MOTION_DDOT":0}]
