CUTE-1 (CO-55)          
1 27844U 03031E   26094.97812161  .00000458  00000+0  21713-3 0  9991
2 27844  98.6769 104.4513 0010325  43.9369 316.2630 14.24289350181251
CUBESAT XI-IV (CO-57)   
1 27848U 03031J   26095.00030604  .00000375  00000+0  18383-3 0  9991
2 27848  98.6802 104.2449 0010479  60.3929 299.8292 14.23580899180962
CUBESAT XI-V            
1 28895U 05043F   26095.21955321  .00002651  00000+0  42563-3 0  9990
2 28895  98.2886 249.3545 0015300  79.0212 281.2715 14.72437411 91018
CUTE-1.7+APD II (CO-65) 
1 32785U 08021C   26095.24552648  .00007163  00000+0  45989-3 0  9998
2 32785  97.8239  75.2076 0007177 278.9265  81.1150 15.08760642974198
CANX-2                  
1 32790U 08021H   26094.90392874  .00005757  00000+0  40888-3 0  9999
2 32790  97.8582  73.3108 0008957 295.7551  64.2750 15.05087267973786
SEEDS II (CO-66)        
1 32791U 08021J   26095.21828436  .00023732  00000+0  81081-3 0  9996
2 32791  97.7527  89.7798 0003015 158.9144 201.2220 15.30294749976128
SWISSCUBE               
1 35932U 09051B   26095.23210999  .00001815  00000+0  36901-3 0  9990
2 35932  98.4078   1.8437 0008089  80.6523 279.5592 14.62337809878490
BEESAT-1                
1 35933U 09051C   26094.99876049  .00001439  00000+0  29930-3 0  9993
2 35933  98.4009   1.3930 0006547  92.8438 267.3512 14.61597876878493
ITUPSAT1                
1 35935U 09051E   26095.19989211  .00001367  00000+0  29280-3 0  9992
2 35935  98.4093   0.8653 0008673 102.3407 257.8764 14.60328249878082
TISAT 1                 
1 36799U 10035E   26095.27463230  .00026947  00000+0  95773-3 0  9993
2 36799  98.0673  35.5460 0004300 117.9861 242.1812 15.28979942856557
AEROCUBE 4.5A           
1 38767U 12048K   26094.92845126  .00127838  00000+0  11023-2 0  9991
2 38767  64.6344 288.3518 0034628 209.4358 150.4842 15.67837208361099
STRAND-1                
1 39090U 13009E   26095.23056663  .00000503  00000+0  18366-3 0  9991
2 39090  98.3906 277.2648 0009856  89.8163 270.4154 14.37119172686589
BRITE-AUSTRIA           
1 39091U 13009F   26095.21230094  .00000315  00000+0  12161-3 0  9990
2 39091  98.3976 276.4587 0011393  97.6670 262.5811 14.36512301686570
NEE-01 PEGASO           
1 39151U 13018B   26094.83476222  .00003903  00000+0  37785-3 0  9994
2 39151  98.1110 236.6266 0013480  49.7782 310.4614 14.93299481699750
POPACS 2                
1 39269U 13055E   26094.79295354  .00025301  00000+0  43189-3 0  9996
2 39269  80.9929 228.0779 0425545  69.4478 295.1850 14.89244923652285
POPACS 3                
1 39270U 13055F   26094.34170563  .00010489  00000+0  25515-3 0  9997
2 39270  81.0009 309.1754 0556484 294.7147  59.7099 14.54572717627812
